{"fetched_at":"2026-07-18T06:27:44.179Z","source":"https://celestrak.org/NORAD/elements/gp.php?GROUP=kuiper&FORMAT=JSON","constellation":"kuiper","records":[{"OBJECT_NAME":"KUIPER-00549","OBJECT_ID":"2026-140AA","EPOCH":"2026-07-17T13:17:45.106656","CLASSIFICATION_TYPE":"U","MEAN_MOTION":15.37370033,"ECCENTRICITY":0.0007974,"INCLINATION":51.877,"RA_OF_ASC_NODE":251.994,"ARG_OF_PERICENTER":23.7391,"MEAN_ANOMALY":336.3962,"EPHEMERIS_TYPE":0,"NORAD_CAT_ID":69616,"ELEMENT_SET_NO":999,"REV_AT_EPOCH":590,"BSTAR":0.00031279,"MEAN_MOTION_DOT":0.0001127,"MEAN_MOTION_DDOT":0},{"OBJECT_NAME":"KUIPER-00550","OBJECT_ID":"2026-140AB","EPOCH":"2026-07-17T14:40:54.660000","CLASSIFICATION_TYPE":"U","MEAN_MOTION":15.31395097,"ECCENTRICITY":0.0008635,"INCLINATION":51.8787,"RA_OF_ASC_NODE":252.3666,"ARG_OF_PERICENTER":71.1882,"MEAN_ANOMALY":289.0038,"EPHEMERIS_TYPE":0,"NORAD_CAT_ID":69617,"ELEMENT_SET_NO":999,"REV_AT_EPOCH":590,"BSTAR":-0.0019704,"MEAN_MOTION_DOT":-0.00060578,"MEAN_MOTION_DDOT":0},{"OBJECT_NAME":"KUIPER-00551","OBJECT_ID":"2026-140AC","EPOCH":"2026-07-17T12:35:22.568928","CLASSIFICATION_TYPE":"U","MEAN_MOTION":15.38280263,"ECCENTRICITY":0.0011948,"INCLINATION":51.8763,"RA_OF_ASC_NODE":251.8075,"ARG_OF_PERICENTER":290.9919,"MEAN_ANOMALY":68.979,"EPHEMERIS_TYPE":0,"NORAD_CAT_ID":69618,"ELEMENT_SET_NO":999,"REV_AT_EPOCH":590,"BSTAR":0.00030124,"MEAN_MOTION_DOT":0.00011186,"MEAN_MOTION_DDOT":0},{"OBJECT_NAME":"KUIPER-00554","OBJECT_ID":"2026-140AD","EPOCH":"2026-07-17T11:10:39.821088","CLASSIFICATION_TYPE":"U","MEAN_MOTION":15.38021157,"ECCENTRICITY":0.0010934,"INCLINATION":51.8774,"RA_OF_ASC_NODE":252.1577,"ARG_OF_PERICENTER":299.1214,"MEAN_ANOMALY":60.8678,"EPHEMERIS_TYPE":0,"NORAD_CAT_ID":69619,"ELEMENT_SET_NO":999,"REV_AT_EPOCH":589,"BSTAR":0.00029095,"MEAN_MOTION_DOT":0.00010692,"MEAN_MOTION_DDOT":0},{"OBJECT_NAME":"KUIPER-00555","OBJECT_ID":"2026-140AE","EPOCH":"2026-07-17T12:40:25.499424","CLASSIFICATION_TYPE":"U","MEAN_MOTION":15.38000281,"ECCENTRICITY":0.0011465,"INCLINATION":51.8803,"RA_OF_ASC_NODE":251.8375,"ARG_OF_PERICENTER":293.0644,"MEAN_ANOMALY":66.9134,"EPHEMERIS_TYPE":0,"NORAD_CAT_ID":69620,"ELEMENT_SET_NO":999,"REV_AT_EPOCH":590,"BSTAR":0.00032144,"MEAN_MOTION_DOT":0.00011851,"MEAN_MOTION_DDOT":0},{"OBJECT_NAME":"KUIPER-00556","OBJECT_ID":"2026-140AF","EPOCH":"2026-07-17T12:37:56.487072","CLASSIFICATION_TYPE":"U","MEAN_MOTION":15.38306805,"ECCENTRICITY":0.0012209,"INCLINATION":51.879,"RA_OF_ASC_NODE":251.8212,"ARG_OF_PERICENTER":275.8759,"MEAN_ANOMALY":84.0837,"EPHEMERIS_TYPE":0,"NORAD_CAT_ID":69621,"ELEMENT_SET_NO":999,"REV_AT_EPOCH":590,"BSTAR":0.00023673,"MEAN_MOTION_DOT":0.0000871,"MEAN_MOTION_DDOT":0},{"OBJECT_NAME":"KUIPER-00557","OBJECT_ID":"2026-140AG","EPOCH":"2026-07-17T03:32:09.245472","CLASSIFICATION_TYPE":"U","MEAN_MOTION":15.37514067,"ECCENTRICITY":0.00095662,"INCLINATION":51.8798,"RA_OF_ASC_NODE":253.7806,"ARG_OF_PERICENTER":307.0267,"MEAN_ANOMALY":52.9844,"EPHEMERIS_TYPE":0,"NORAD_CAT_ID":69622,"ELEMENT_SET_NO":999,"REV_AT_EPOCH":584,"BSTAR":-0.000063982126,"MEAN_MOTION_DOT":-0.00002792,"MEAN_MOTION_DDOT":0},{"OBJECT_NAME":"KUIPER-00560","OBJECT_ID":"2026-140AH","EPOCH":"2026-07-17T22:00:01.999584","CLASSIFICATION_TYPE":"U","MEAN_MOTION":15.37021451,"ECCENTRICITY":0.0009278,"INCLINATION":51.8771,"RA_OF_ASC_NODE":249.9569,"ARG_OF_PERICENTER":322.4773,"MEAN_ANOMALY":25.6317,"EPHEMERIS_TYPE":0,"NORAD_CAT_ID":69623,"ELEMENT_SET_NO":999,"REV_AT_EPOCH":553,"BSTAR":0.0004167302,"MEAN_MOTION_DOT":0.00014986,"MEAN_MOTION_DDOT":0},{"OBJECT_NAME":"KUIPER-00561","OBJECT_ID":"2026-140AJ","EPOCH":"2026-07-17T12:40:18.704064","CLASSIFICATION_TYPE":"U","MEAN_MOTION":15.38770579,"ECCENTRICITY":0.0008373,"INCLINATION":51.8811,"RA_OF_ASC_NODE":251.8391,"ARG_OF_PERICENTER":319.0238,"MEAN_ANOMALY":41.0119,"EPHEMERIS_TYPE":0,"NORAD_CAT_ID":69624,"ELEMENT_SET_NO":999,"REV_AT_EPOCH":590,"BSTAR":0.00039759,"MEAN_MOTION_DOT":0.00015128,"MEAN_MOTION_DDOT":0},{"OBJECT_NAME":"KUIPER-00564","OBJECT_ID":"2026-140AK","EPOCH":"2026-07-17T11:16:28.111584","CLASSIFICATION_TYPE":"U","MEAN_MOTION":15.37207261,"ECCENTRICITY":0.0009139,"INCLINATION":51.8809,"RA_OF_ASC_NODE":252.1884,"ARG_OF_PERICENTER":303.5856,"MEAN_ANOMALY":56.4258,"EPHEMERIS_TYPE":0,"NORAD_CAT_ID":69625,"ELEMENT_SET_NO":999,"REV_AT_EPOCH":589,"BSTAR":-0.0001029,"MEAN_MOTION_DOT":-0.00004207,"MEAN_MOTION_DDOT":0},{"OBJECT_NAME":"KUIPER-00567","OBJECT_ID":"2026-140AL","EPOCH":"2026-07-17T12:34:10.743744","CLASSIFICATION_TYPE":"U","MEAN_MOTION":15.38335096,"ECCENTRICITY":0.0013233,"INCLINATION":51.8781,"RA_OF_ASC_NODE":251.7979,"ARG_OF_PERICENTER":277.9947,"MEAN_ANOMALY":81.9539,"EPHEMERIS_TYPE":0,"NORAD_CAT_ID":69626,"ELEMENT_SET_NO":999,"REV_AT_EPOCH":590,"BSTAR":0.00028365,"MEAN_MOTION_DOT":0.00010533,"MEAN_MOTION_DDOT":0},{"OBJECT_NAME":"KUIPER-00573","OBJECT_ID":"2026-140AM","EPOCH":"2026-07-17T03:37:41.997792","CLASSIFICATION_TYPE":"U","MEAN_MOTION":15.37517892,"ECCENTRICITY":0.0009311,"INCLINATION":51.877,"RA_OF_ASC_NODE":253.7966,"ARG_OF_PERICENTER":292.5254,"MEAN_ANOMALY":67.4747,"EPHEMERIS_TYPE":0,"NORAD_CAT_ID":69627,"ELEMENT_SET_NO":999,"REV_AT_EPOCH":584,"BSTAR":0.00039088574,"MEAN_MOTION_DOT":0.00014263,"MEAN_MOTION_DDOT":0},{"OBJECT_NAME":"KUIPER-00258","OBJECT_ID":"2026-151A","EPOCH":"2026-07-17T22:28:07.473504","CLASSIFICATION_TYPE":"U","MEAN_MOTION":15.34767856,"ECCENTRICITY":0.00115173,"INCLINATION":51.8673,"RA_OF_ASC_NODE":167.3485,"ARG_OF_PERICENTER":176.1999,"MEAN_ANOMALY":183.9076,"EPHEMERIS_TYPE":0,"NORAD_CAT_ID":69763,"ELEMENT_SET_NO":999,"REV_AT_EPOCH":243,"BSTAR":0.00010822636,"MEAN_MOTION_DOT":0.00003326,"MEAN_MOTION_DDOT":0},{"OBJECT_NAME":"KUIPER-00526","OBJECT_ID":"2026-151B","EPOCH":"2026-07-17T11:05:40.705152","CLASSIFICATION_TYPE":"U","MEAN_MOTION":15.37352408,"ECCENTRICITY":0.0005842,"INCLINATION":51.8774,"RA_OF_ASC_NODE":169.4309,"ARG_OF_PERICENTER":149.0343,"MEAN_ANOMALY":211.0989,"EPHEMERIS_TYPE":0,"NORAD_CAT_ID":69764,"ELEMENT_SET_NO":999,"REV_AT_EPOCH":236,"BSTAR":0.00033725,"MEAN_MOTION_DOT":0.00012172,"MEAN_MOTION_DDOT":0},{"OBJECT_NAME":"KUIPER-00558","OBJECT_ID":"2026-151C","EPOCH":"2026-07-17T22:00:01.999584","CLASSIFICATION_TYPE":"U","MEAN_MOTION":15.33518626,"ECCENTRICITY":0.00069423,"INCLINATION":51.8777,"RA_OF_ASC_NODE":167.3212,"ARG_OF_PERICENTER":171.7253,"MEAN_ANOMALY":141.244,"EPHEMERIS_TYPE":0,"NORAD_CAT_ID":69765,"ELEMENT_SET_NO":999,"REV_AT_EPOCH":303,"BSTAR":0.0012721858,"MEAN_MOTION_DOT":0.00041723,"MEAN_MOTION_DDOT":0},{"OBJECT_NAME":"KUIPER-00569","OBJECT_ID":"2026-151D","EPOCH":"2026-07-17T21:58:23.902752","CLASSIFICATION_TYPE":"U","MEAN_MOTION":15.37510491,"ECCENTRICITY":0.00053005,"INCLINATION":51.8783,"RA_OF_ASC_NODE":167.2196,"ARG_OF_PERICENTER":142.1548,"MEAN_ANOMALY":217.9812,"EPHEMERIS_TYPE":0,"NORAD_CAT_ID":69766,"ELEMENT_SET_NO":999,"REV_AT_EPOCH":243,"BSTAR":0.00053327085,"MEAN_MOTION_DOT":0.00019595,"MEAN_MOTION_DDOT":0}]}
